{"type": "FeatureCollection", "features": [ {"type": "Feature", "properties": {"norad_id": 33779, "name": "COSMOS 2251 DEB", "group": "cosmos-2251-debris", "lat": 31.809049615557274, "lon": -22.71852982937949, "alt_km": 650.2997700587457, "timestamp": "2025-12-14T09:36:23.430565+00:00", "meta": {"OBJECT_NAME": "COSMOS 2251 DEB", "OBJECT_ID": "1993-036U", "EPOCH": "2025-12-13T13:36:19.429920", "MEAN_MOTION": 14.70479134, "ECCENTRICITY": 0.00169181, "INCLINATION": 74.0446, "RA_OF_ASC_NODE": 169.1181, "ARG_OF_PERICENTER": 202.53, "MEAN_ANOMALY": 214.4012, "EPHEMERIS_TYPE": 0, "CLASSIFICATION_TYPE": "U", "NORAD_CAT_ID": 33779, "ELEMENT_SET_NO": 999, "REV_AT_EPOCH": 88540, "BSTAR": 0.002422042, "MEAN_MOTION_DOT": 0.00014718, "MEAN_MOTION_DDOT": 0}, "tle": {"line1": "1 33779U 93036U   25347.56689155  .00014718  00000+0  24220-2 0  9998", "line2": "2 33779  74.0446 169.1181 0016918 202.5300 214.4012 14.70479134885409"}}, "geometry": {"type": "Point", "coordinates": [-22.71852982937949, 31.809049615557274]}}, {"type": "Feature", "properties": {"norad_id": 33782, "name": "COSMOS 2251 DEB", "group": "cosmos-2251-debris", "lat": 73.95367374870149, "lon": -1.0194402670028924, "alt_km": 754.5245077310501, "timestamp": "2025-12-14T09:36:23.430575+00:00", "meta": {"OBJECT_NAME": "COSMOS 2251 DEB", "OBJECT_ID": "1993-036X", "EPOCH": "2025-12-13T05:24:59.914080", "MEAN_MOTION": 14.40451312, "ECCENTRICITY": 0.00207855, "INCLINATION": 74.0335, "RA_OF_ASC_NODE": 276.6477, "ARG_OF_PERICENTER": 341.3211, "MEAN_ANOMALY": 138.4686, "EPHEMERIS_TYPE": 0, "CLASSIFICATION_TYPE": "U", "NORAD_CAT_ID": 33782, "ELEMENT_SET_NO": 999, "REV_AT_EPOCH": 88133, "BSTAR": 0.000722901, "MEAN_MOTION_DOT": 2.278e-05, "MEAN_MOTION_DDOT": 0}, "tle": {"line1": "1 33782U 93036X   25347.22569345  .00002278  00000+0  72290-3 0  9992", "line2": "2 33782  74.0335 276.6477 0020785 341.3211 138.4686 14.40451312881337"}}, "geometry": {"type": "Point", "coordinates": [-1.0194402670028924, 73.95367374870149]}}, {"type": "Feature", "properties": {"norad_id": 33785, "name": "COSMOS 2251 DEB", "group": "cosmos-2251-debris", "lat": 55.84702803543224, "lon": -148.5830865570035, "alt_km": 662.5787614131032, "timestamp": "2025-12-14T09:36:23.430586+00:00", "meta": {"OBJECT_NAME": "COSMOS 2251 DEB", "OBJECT_ID": "1993-036AA", "EPOCH": "2025-12-13T15:38:27.349152", "MEAN_MOTION": 14.70521875, "ECCENTRICITY": 0.00223746, "INCLINATION": 73.8673, "RA_OF_ASC_NODE": 58.1396, "ARG_OF_PERICENTER": 357.4397, "MEAN_ANOMALY": 121.5889, "EPHEMERIS_TYPE": 0, "CLASSIFICATION_TYPE": "U", "NORAD_CAT_ID": 33785, "ELEMENT_SET_NO": 999, "REV_AT_EPOCH": 88520, "BSTAR": 0.0022411763, "MEAN_MOTION_DOT": 0.00013649, "MEAN_MOTION_DDOT": 0}, "tle": {"line1": "1 33785U 93036AA  25347.65170543  .00013649  00000+0  22412-2 0  9994", "line2": "2 33785  73.8673  58.1396 0022374 357.4397 121.5889 14.70521875885207"}}, "geometry": {"type": "Point", "coordinates": [-148.5830865570035, 55.84702803543224]}}, {"type": "Feature", "properties": {"norad_id": 33789, "name": "COSMOS 2251 DEB", "group": "cosmos-2251-debris", "lat": 10.785248265850184, "lon": -98.53131232679956, "alt_km": 782.5385251001517, "timestamp": "2025-12-14T09:36:23.430596+00:00", "meta": {"OBJECT_NAME": "COSMOS 2251 DEB", "OBJECT_ID": "1993-036AE", "EPOCH": "2025-12-13T16:02:51.855936", "MEAN_MOTION": 13.88798325, "ECCENTRICITY": 0.02401643, "INCLINATION": 74.0645, "RA_OF_ASC_NODE": 85.8297, "ARG_OF_PERICENTER": 201.2568, "MEAN_ANOMALY": 272.3842, "EPHEMERIS_TYPE": 0, "CLASSIFICATION_TYPE": "U", "NORAD_CAT_ID": 33789, "ELEMENT_SET_NO": 999, "REV_AT_EPOCH": 85108, "BSTAR": 0.0010351991, "MEAN_MOTION_DOT": 1.55e-05, "MEAN_MOTION_DDOT": 0}, "tle": {"line1": "1 33789U 93036AE  25347.66865574  .00001550  00000+0  10352-2 0  9992", "line2": "2 33789  74.0645  85.8297 0240164 201.2568 272.3842 13.88798325851082"}}, "geometry": {"type": "Point", "coordinates": [-98.53131232679956, 10.785248265850184]}}, {"type": "Feature", "properties": {"norad_id": 33791, "name": "COSMOS 2251 DEB", "group": "cosmos-2251-debris", "lat": 8.09583225406699, "lon": 36.836309684006096, "alt_km": 765.5483985744404, "timestamp": "2025-12-14T09:36:23.430606+00:00", "meta": {"OBJECT_NAME": "COSMOS 2251 DEB", "OBJECT_ID": "1993-036AG", "EPOCH": "2025-12-13T12:25:39.366336", "MEAN_MOTION": 14.43131194, "ECCENTRICITY": 0.00304821, "INCLINATION": 74.1757, "RA_OF_ASC_NODE": 36.1484, "ARG_OF_PERICENTER": 233.2885, "MEAN_ANOMALY": 232.2761, "EPHEMERIS_TYPE": 0, "CLASSIFICATION_TYPE": "U", "NORAD_CAT_ID": 33791, "ELEMENT_SET_NO": 999, "REV_AT_EPOCH": 88063, "BSTAR": 0.001199107, "MEAN_MOTION_DOT": 4.025e-05, "MEAN_MOTION_DDOT": 0}, "tle": {"line1": "1 33791U 93036AG  25347.51781674  .00004025  00000+0  11991-2 0  9997", "line2": "2 33791  74.1757  36.1484 0030482 233.2885 232.2761 14.43131194880639"}}, "geometry": {"type": "Point", "coordinates": [36.836309684006096, 8.09583225406699]}}, {"type": "Feature", "properties": {"norad_id": 33792, "name": "COSMOS 2251 DEB", "group": "cosmos-2251-debris", "lat": -17.679935695340482, "lon": 167.97481560786952, "alt_km": 1368.550592842861, "timestamp": "2025-12-14T09:36:23.430616+00:00", "meta": {"OBJECT_NAME": "COSMOS 2251 DEB", "OBJECT_ID": "1993-036AH", "EPOCH": "2025-12-13T08:12:51.626880", "MEAN_MOTION": 13.45823766, "ECCENTRICITY": 0.04270854, "INCLINATION": 73.9009, "RA_OF_ASC_NODE": 344.382, "ARG_OF_PERICENTER": 48.9226, "MEAN_ANOMALY": 62.8455, "EPHEMERIS_TYPE": 0, "CLASSIFICATION_TYPE": "U", "NORAD_CAT_ID": 33792, "ELEMENT_SET_NO": 999, "REV_AT_EPOCH": 82450, "BSTAR": 0.001124393, "MEAN_MOTION_DOT": 1.145e-05, "MEAN_MOTION_DDOT": 0}, "tle": {"line1": "1 33792U 93036AH  25347.34226420  .00001145  00000+0  11244-2 0  9993", "line2": "2 33792  73.9009 344.3820 0427085  48.9226  62.8455 13.45823766824509"}}, "geometry": {"type": "Point", "coordinates": [167.97481560786952, -17.679935695340482]}}, {"type": "Feature", "properties": {"norad_id": 33793, "name": "COSMOS 2251 DEB", "group": "cosmos-2251-debris", "lat": 19.437750489110226, "lon": -38.918763665420265, "alt_km": 840.1194341846412, "timestamp": "2025-12-14T09:36:23.430626+00:00", "meta": {"OBJECT_NAME": "COSMOS 2251 DEB", "OBJECT_ID": "1993-036AJ", "EPOCH": "2025-12-13T12:58:34.580928", "MEAN_MOTION": 14.27726317, "ECCENTRICITY": 0.00785333, "INCLINATION": 73.9807, "RA_OF_ASC_NODE": 148.4619, "ARG_OF_PERICENTER": 298.3944, "MEAN_ANOMALY": 125.4607, "EPHEMERIS_TYPE": 0, "CLASSIFICATION_TYPE": "U", "NORAD_CAT_ID": 33793, "ELEMENT_SET_NO": 999, "REV_AT_EPOCH": 87218, "BSTAR": 0.00092383298, "MEAN_MOTION_DOT": 2.33e-05, "MEAN_MOTION_DDOT": 0}, "tle": {"line1": "1 33793U 93036AJ  25347.54067802  .00002330  00000+0  92383-3 0  9994", "line2": "2 33793  73.9807 148.4619 0078533 298.3944 125.4607 14.27726317872180"}}, "geometry": {"type": "Point", "coordinates": [-38.918763665420265, 19.437750489110226]}}, {"type": "Feature", "properties": {"norad_id": 33795, "name": "COSMOS 2251 DEB", "group": "cosmos-2251-debris", "lat": -30.360790803254766, "lon": -97.01116207356958, "alt_km": 543.1132734037146, "timestamp": "2025-12-14T09:36:23.430636+00:00", "meta": {"OBJECT_NAME": "COSMOS 2251 DEB", "OBJECT_ID": "1993-036AL", "EPOCH": "2025-12-13T15:39:12.696192", "MEAN_MOTION": 15.05564004, "ECCENTRICITY": 0.00313165, "INCLINATION": 74.0319, "RA_OF_ASC_NODE": 74.8661, "ARG_OF_PERICENTER": 157.5297, "MEAN_ANOMALY": 321.0773, "EPHEMERIS_TYPE": 0, "CLASSIFICATION_TYPE": "U", "NORAD_CAT_ID": 33795, "ELEMENT_SET_NO": 999, "REV_AT_EPOCH": 90035, "BSTAR": 0.0013903924, "MEAN_MOTION_DOT": 0.00020272, "MEAN_MOTION_DDOT": 0}, "tle": {"line1": "1 33795U 93036AL  25347.65223028  .00020272  00000+0  13904-2 0  9998", "line2": "2 33795  74.0319  74.8661 0031316 157.5297 321.0773 15.05564004900355"}}, "geometry": {"type": "Point", "coordinates": [-97.01116207356958, -30.360790803254766]}}, {"type": "Feature", "properties": {"norad_id": 33797, "name": "COSMOS 2251 DEB", "group": "cosmos-2251-debris", "lat": 67.65570454011274, "lon": 167.70872981491442, "alt_km": 651.3943529087055, "timestamp": "2025-12-14T09:36:23.430646+00:00", "meta": {"OBJECT_NAME": "COSMOS 2251 DEB", "OBJECT_ID": "1993-036AN", "EPOCH": "2025-12-13T14:02:56.846688", "MEAN_MOTION": 14.57852913, "ECCENTRICITY": 0.006064, "INCLINATION": 74.0484, "RA_OF_ASC_NODE": 33.3521, "ARG_OF_PERICENTER": 120.9955, "MEAN_ANOMALY": 29.9634, "EPHEMERIS_TYPE": 0, "CLASSIFICATION_TYPE": "U", "NORAD_CAT_ID": 33797, "ELEMENT_SET_NO": 999, "REV_AT_EPOCH": 88997, "BSTAR": 0.00052458034, "MEAN_MOTION_DOT": 2.435e-05, "MEAN_MOTION_DDOT": 0}, "tle": {"line1": "1 33797U 93036AN  25347.58538017  .00002435  00000+0  52458-3 0  9998", "line2": "2 33797  74.0484  33.3521 0060640 120.9955  29.9634 14.57852913889971"}}, "geometry": {"type": "Point", "coordinates": [167.70872981491442, 67.65570454011274]}}, {"type": "Feature", "properties": {"norad_id": 33798, "name": "COSMOS 2251 DEB", "group": "cosmos-2251-debris", "lat": -73.64721481704765, "lon": 30.253245647804444, "alt_km": 685.9471949356284, "timestamp": "2025-12-14T09:36:23.430656+00:00", "meta": {"OBJECT_NAME": "COSMOS 2251 DEB", "OBJECT_ID": "1993-036AP", "EPOCH": "2025-12-13T11:01:42.223872", "MEAN_MOTION": 14.44616094, "ECCENTRICITY": 0.00924859, "INCLINATION": 74.0282, "RA_OF_ASC_NODE": 134.5645, "ARG_OF_PERICENTER": 255.7822, "MEAN_ANOMALY": 159.9423, "EPHEMERIS_TYPE": 0, "CLASSIFICATION_TYPE": "U", "NORAD_CAT_ID": 33798, "ELEMENT_SET_NO": 999, "REV_AT_EPOCH": 88604, "BSTAR": 0.00027701777, "MEAN_MOTION_DOT": 9.81e-06, "MEAN_MOTION_DDOT": 0}, "tle": {"line1": "1 33798U 93036AP  25347.45951648  .00000981  00000+0  27702-3 0  9992", "line2": "2 33798  74.0282 134.5645 0092485 255.7822 159.9423 14.44616094886040"}}, "geometry": {"type": "Point", "coordinates": [30.253245647804444, -73.64721481704765]}}]}